{
  "type": "FeatureCollection",
  "features": [
    {
      "type": "Feature",
      "properties": {
        "norad_id": 44334,
        "name": "EUTELSAT 7C",
        "group": "eutelsat",
        "lat": -0.03289245956649958,
        "lon": 167.03511733897201,
        "alt_km": 35781.47238340659,
        "timestamp": "2025-12-05T05:43:14.785760+00:00",
        "meta_object_name": "EUTELSAT 7C",
        "meta_object_id": "2019-034B",
        "meta_epoch": "2025-12-04T05:11:56.717088",
        "meta_mean_motion": 1.00269705,
        "meta_eccentricity": 0.000344,
        "meta_inclination": 0.0758,
        "meta_ra_of_asc_node": 179.6885,
        "meta_arg_of_pericenter": 56.5984,
        "meta_mean_anomaly": 281.9777,
        "meta_ephemeris_type": 0,
        "meta_classification_type": "U",
        "meta_norad_cat_id": 44334,
        "meta_element_set_no": 999,
        "meta_rev_at_epoch": 488,
        "meta_bstar": 0,
        "meta_mean_motion_dot": 6.4e-07,
        "meta_mean_motion_ddot": 0,
        "tle_line1": "1 44334U 19034B   25338.21662867  .00000064  00000+0  00000+0 0  9992",
        "tle_line2": "2 44334   0.0758 179.6885 0003440  56.5984 281.9777  1.00269705  4883"
      },
      "geometry": {
        "type": "Point",
        "coordinates": [
          167.03511733897201,
          -0.03289245956649958
        ]
      }
    },
    {
      "type": "Feature",
      "properties": {
        "norad_id": 44624,
        "name": "EUTELSAT 5 WEST B",
        "group": "eutelsat",
        "lat": -0.008725808898767725,
        "lon": 155.0564616288851,
        "alt_km": 35788.86617951017,
        "timestamp": "2025-12-05T05:43:14.785771+00:00",
        "meta_object_name": "EUTELSAT 5 WEST B",
        "meta_object_id": "2019-067A",
        "meta_epoch": "2025-12-04T13:42:12.244320",
        "meta_mean_motion": 1.00270033,
        "meta_eccentricity": 0.0003567,
        "meta_inclination": 0.0692,
        "meta_ra_of_asc_node": 330.6082,
        "meta_arg_of_pericenter": 283.2398,
        "meta_mean_anomaly": 20.3528,
        "meta_ephemeris_type": 0,
        "meta_classification_type": "U",
        "meta_norad_cat_id": 44624,
        "meta_element_set_no": 999,
        "meta_rev_at_epoch": 2248,
        "meta_bstar": 0,
        "meta_mean_motion_dot": -2.8e-07,
        "meta_mean_motion_ddot": 0,
        "tle_line1": "1 44624U 19067A   25338.57097505 -.00000028  00000+0  00000+0 0  9991",
        "tle_line2": "2 44624   0.0692 330.6082 0003567 283.2398  20.3528  1.00270033 22489"
      },
      "geometry": {
        "type": "Point",
        "coordinates": [
          155.0564616288851,
          -0.008725808898767725
        ]
      }
    },
    {
      "type": "Feature",
      "properties": {
        "norad_id": 45027,
        "name": "EUTELSAT KONNECT",
        "group": "eutelsat",
        "lat": 0.052513995868708564,
        "lon": 167.27156800784448,
        "alt_km": 35786.73546425061,
        "timestamp": "2025-12-05T05:43:14.785783+00:00",
        "meta_object_name": "EUTELSAT KONNECT",
        "meta_object_id": "2020-005B",
        "meta_epoch": "2025-12-04T08:37:30.489888",
        "meta_mean_motion": 1.00272344,
        "meta_eccentricity": 0.0001642,
        "meta_inclination": 0.0692,
        "meta_ra_of_asc_node": 100.602,
        "meta_arg_of_pericenter": 164.0721,
        "meta_mean_anomaly": 305.3307,
        "meta_ephemeris_type": 0,
        "meta_classification_type": "U",
        "meta_norad_cat_id": 45027,
        "meta_element_set_no": 999,
        "meta_rev_at_epoch": 2237,
        "meta_bstar": 0,
        "meta_mean_motion_dot": 6.5e-07,
        "meta_mean_motion_ddot": 0,
        "tle_line1": "1 45027U 20005B   25338.35938067  .00000065  00000+0  00000+0 0  9996",
        "tle_line2": "2 45027   0.0692 100.6020 0001642 164.0721 305.3307  1.00272344 22378"
      },
      "geometry": {
        "type": "Point",
        "coordinates": [
          167.27156800784448,
          0.052513995868708564
        ]
      }
    },
    {
      "type": "Feature",
      "properties": {
        "norad_id": 49056,
        "name": "EUTELSAT QUANTUM",
        "group": "eutelsat",
        "lat": -0.016747920966402464,
        "lon": -152.24023782796084,
        "alt_km": 35778.437792928526,
        "timestamp": "2025-12-05T05:43:14.785795+00:00",
        "meta_object_name": "EUTELSAT QUANTUM",
        "meta_object_id": "2021-069B",
        "meta_epoch": "2025-12-04T13:57:10.807776",
        "meta_mean_motion": 1.00269477,
        "meta_eccentricity": 0.0003673,
        "meta_inclination": 0.0208,
        "meta_ra_of_asc_node": 24.1809,
        "meta_arg_of_pericenter": 241.8459,
        "meta_mean_anomaly": 64.6276,
        "meta_ephemeris_type": 0,
        "meta_classification_type": "U",
        "meta_norad_cat_id": 49056,
        "meta_element_set_no": 999,
        "meta_rev_at_epoch": 1597,
        "meta_bstar": 0,
        "meta_mean_motion_dot": 1.41e-06,
        "meta_mean_motion_ddot": 0,
        "tle_line1": "1 49056U 21069B   25338.58137509  .00000141  00000+0  00000+0 0  9995",
        "tle_line2": "2 49056   0.0208  24.1809 0003673 241.8459  64.6276  1.00269477 15971"
      },
      "geometry": {
        "type": "Point",
        "coordinates": [
          -152.24023782796084,
          -0.016747920966402464
        ]
      }
    },
    {
      "type": "Feature",
      "properties": {
        "norad_id": 53765,
        "name": "EUTELSAT KONNECT VHTS",
        "group": "eutelsat",
        "lat": 0.04084679617290445,
        "lon": 162.75296329104873,
        "alt_km": 35782.80320230814,
        "timestamp": "2025-12-05T05:43:14.785806+00:00",
        "meta_object_name": "EUTELSAT KONNECT VHTS",
        "meta_object_id": "2022-110A",
        "meta_epoch": "2025-12-04T13:44:12.050880",
        "meta_mean_motion": 1.00269123,
        "meta_eccentricity": 0.0002763,
        "meta_inclination": 0.0604,
        "meta_ra_of_asc_node": 108.2919,
        "meta_arg_of_pericenter": 124.354,
        "meta_mean_anomaly": 49.743,
        "meta_ephemeris_type": 0,
        "meta_classification_type": "U",
        "meta_norad_cat_id": 53765,
        "meta_element_set_no": 999,
        "meta_rev_at_epoch": 487,
        "meta_bstar": 0,
        "meta_mean_motion_dot": 3.1e-07,
        "meta_mean_motion_ddot": 0,
        "tle_line1": "1 53765U 22110A   25338.57236170  .00000031  00000+0  00000+0 0  9996",
        "tle_line2": "2 53765   0.0604 108.2919 0002763 124.3540  49.7430  1.00269123  4875"
      },
      "geometry": {
        "type": "Point",
        "coordinates": [
          162.75296329104873,
          0.04084679617290445
        ]
      }
    },
    {
      "type": "Feature",
      "properties": {
        "norad_id": 54048,
        "name": "EUTELSAT HOTBIRD 13F",
        "group": "eutelsat",
        "lat": -0.05611983246859531,
        "lon": 173.0907334875961,
        "alt_km": 35795.33734875094,
        "timestamp": "2025-12-05T05:43:14.785818+00:00",
        "meta_object_name": "EUTELSAT HOTBIRD 13F",
        "meta_object_id": "2022-134A",
        "meta_epoch": "2025-12-04T13:47:19.252032",
        "meta_mean_motion": 1.00270673,
        "meta_eccentricity": 0.0002145,
        "meta_inclination": 0.0509,
        "meta_ra_of_asc_node": 291.8865,
        "meta_arg_of_pericenter": 61.6816,
        "meta_mean_anomaly": 299.907,
        "meta_ephemeris_type": 0,
        "meta_classification_type": "U",
        "meta_norad_cat_id": 54048,
        "meta_element_set_no": 999,
        "meta_rev_at_epoch": 1142,
        "meta_bstar": 0,
        "meta_mean_motion_dot": 1.02e-06,
        "meta_mean_motion_ddot": 0,
        "tle_line1": "1 54048U 22134A   25338.57452838  .00000102  00000+0  00000+0 0  9997",
        "tle_line2": "2 54048   0.0509 291.8865 0002145  61.6816 299.9070  1.00270673 11426"
      },
      "geometry": {
        "type": "Point",
        "coordinates": [
          173.0907334875961,
          -0.05611983246859531
        ]
      }
    },
    {
      "type": "Feature",
      "properties": {
        "norad_id": 54225,
        "name": "EUTELSAT HOTBIRD 13G",
        "group": "eutelsat",
        "lat": -0.04600021178172884,
        "lon": 173.08650284833683,
        "alt_km": 35777.396459128344,
        "timestamp": "2025-12-05T05:43:14.785830+00:00",
        "meta_object_name": "EUTELSAT HOTBIRD 13G",
        "meta_object_id": "2022-146A",
        "meta_epoch": "2025-12-04T01:48:08.883648",
        "meta_mean_motion": 1.00271083,
        "meta_eccentricity": 0.0002144,
        "meta_inclination": 0.0481,
        "meta_ra_of_asc_node": 238.3515,
        "meta_arg_of_pericenter": 307.4733,
        "meta_mean_anomaly": 287.3658,
        "meta_ephemeris_type": 0,
        "meta_classification_type": "U",
        "meta_norad_cat_id": 54225,
        "meta_element_set_no": 999,
        "meta_rev_at_epoch": 551,
        "meta_bstar": 0,
        "meta_mean_motion_dot": 1.04e-06,
        "meta_mean_motion_ddot": 0,
        "tle_line1": "1 54225U 22146A   25338.07510282  .00000104  00000+0  00000+0 0  9992",
        "tle_line2": "2 54225   0.0481 238.3515 0002144 307.4733 287.3658  1.00271083  5510"
      },
      "geometry": {
        "type": "Point",
        "coordinates": [
          173.08650284833683,
          -0.04600021178172884
        ]
      }
    }
  ]
}